{
  "norad_id": 66361,
  "name": "STARLINK-35813",
  "history": [
    {
      "epoch": "2026-03-28T14:18:25.658784",
      "apogee_km": 475.4193036758179,
      "perigee_km": 474.89708258210067,
      "latitude_deg": 27.976476952741212,
      "longitude_deg": 153.32850976008922,
      "semi_major_axis_km": 6853.295193128959,
      "eccentricity": 3.81e-05,
      "inclination_deg": 53.1587,
      "raan_deg": 144.3989,
      "arg_perigee_deg": 101.7512,
      "mean_anomaly_deg": 258.3531,
      "mean_motion_rev_day": 15.30219049
    }
  ]
}