{"fetched_at":"2026-03-29T02:12:04Z","count":15717,"tles":[{"name":"STARLINK-35813","line1":"1 66361U 25254P   26087.59613032  .00031061  00000+0  10558-2 0  9993","line2":"2 66361  53.1587 144.3989 0000380 101.7512 258.3531 15.30219049 21878","category":"Starlink"}]}